{
  "type": "FeatureCollection",
  "features": [
    {
      "type": "Feature",
      "properties": {
        "norad_id": 29857,
        "name": "FENGYUN 1C DEB",
        "group": "fengyun-1c-debris",
        "lat": -59.87801022989293,
        "lon": 17.576697803044947,
        "alt_km": 842.7304805091026,
        "timestamp": "2025-12-22T11:33:20.711197+00:00",
        "meta_object_name": "FENGYUN 1C DEB",
        "meta_object_id": "1999-025FB",
        "meta_epoch": "2025-12-21T23:40:53.088384",
        "meta_mean_motion": 13.81911822,
        "meta_eccentricity": 0.0192737,
        "meta_inclination": 98.4225,
        "meta_ra_of_asc_node": 2.3393,
        "meta_arg_of_pericenter": 269.0844,
        "meta_mean_anomaly": 88.8226,
        "meta_ephemeris_type": 0,
        "meta_classification_type": "U",
        "meta_norad_cat_id": 29857,
        "meta_element_set_no": 999,
        "meta_rev_at_epoch": 94903,
        "meta_bstar": 0.0013172,
        "meta_mean_motion_dot": 1.589e-05,
        "meta_mean_motion_ddot": 0,
        "tle_line1": "1 29857U 99025FB  25355.98672556  .00001589  00000+0  13172-2 0  9992",
        "tle_line2": "2 29857  98.4225   2.3393 0192737 269.0844  88.8226 13.81911822949030"
      },
      "geometry": {
        "type": "Point",
        "coordinates": [
          17.576697803044947,
          -59.87801022989293
        ]
      }
    },
    {
      "type": "Feature",
      "properties": {
        "norad_id": 29858,
        "name": "FENGYUN 1C DEB",
        "group": "fengyun-1c-debris",
        "lat": 56.40508371869242,
        "lon": 83.68191612830984,
        "alt_km": 828.4039185759648,
        "timestamp": "2025-12-22T11:33:20.711207+00:00",
        "meta_object_name": "FENGYUN 1C DEB",
        "meta_object_id": "1999-025FC",
        "meta_epoch": "2025-12-18T19:00:45.604800",
        "meta_mean_motion": 13.77800966,
        "meta_eccentricity": 0.01979476,
        "meta_inclination": 99.2131,
        "meta_ra_of_asc_node": 94.2433,
        "meta_arg_of_pericenter": 48.2645,
        "meta_mean_anomaly": 79.1128,
        "meta_ephemeris_type": 0,
        "meta_classification_type": "U",
        "meta_norad_cat_id": 29858,
        "meta_element_set_no": 999,
        "meta_rev_at_epoch": 94637,
        "meta_bstar": 0.00085355304,
        "meta_mean_motion_dot": 9.45e-06,
        "meta_mean_motion_ddot": 0,
        "tle_line1": "1 29858U 99025FC  25352.79219450  .00000945  00000+0  85355-3 0  9997",
        "tle_line2": "2 29858  99.2131  94.2433 0197947  48.2645  79.1128 13.77800966946374"
      },
      "geometry": {
        "type": "Point",
        "coordinates": [
          83.68191612830984,
          56.40508371869242
        ]
      }
    },
    {
      "type": "Feature",
      "properties": {
        "norad_id": 29859,
        "name": "FENGYUN 1C DEB",
        "group": "fengyun-1c-debris",
        "lat": -22.155639542571507,
        "lon": 6.552680619249932,
        "alt_km": 780.9342877624549,
        "timestamp": "2025-12-22T11:33:20.711218+00:00",
        "meta_object_name": "FENGYUN 1C DEB",
        "meta_object_id": "1999-025FD",
        "meta_epoch": "2025-12-22T00:05:27.280608",
        "meta_mean_motion": 13.74081033,
        "meta_eccentricity": 0.0294506,
        "meta_inclination": 98.3354,
        "meta_ra_of_asc_node": 189.5575,
        "meta_arg_of_pericenter": 187.9116,
        "meta_mean_anomaly": 171.7337,
        "meta_ephemeris_type": 0,
        "meta_classification_type": "U",
        "meta_norad_cat_id": 29859,
        "meta_element_set_no": 999,
        "meta_rev_at_epoch": 94107,
        "meta_bstar": 0.0019884,
        "meta_mean_motion_dot": 2.523e-05,
        "meta_mean_motion_ddot": 0,
        "tle_line1": "1 29859U 99025FD  25356.00378797  .00002523  00000+0  19884-2 0  9993",
        "tle_line2": "2 29859  98.3354 189.5575 0294506 187.9116 171.7337 13.74081033941076"
      },
      "geometry": {
        "type": "Point",
        "coordinates": [
          6.552680619249932,
          -22.155639542571507
        ]
      }
    },
    {
      "type": "Feature",
      "properties": {
        "norad_id": 29860,
        "name": "FENGYUN 1C DEB",
        "group": "fengyun-1c-debris",
        "lat": 71.28534846029127,
        "lon": -123.9108892967837,
        "alt_km": 1105.1054913037942,
        "timestamp": "2025-12-22T11:33:20.711228+00:00",
        "meta_object_name": "FENGYUN 1C DEB",
        "meta_object_id": "1999-025FE",
        "meta_epoch": "2025-12-20T00:05:31.414848",
        "meta_mean_motion": 13.77565437,
        "meta_eccentricity": 0.0221203,
        "meta_inclination": 98.6169,
        "meta_ra_of_asc_node": 27.2498,
        "meta_arg_of_pericenter": 323.5795,
        "meta_mean_anomaly": 101.1256,
        "meta_ephemeris_type": 0,
        "meta_classification_type": "U",
        "meta_norad_cat_id": 29860,
        "meta_element_set_no": 999,
        "meta_rev_at_epoch": 94239,
        "meta_bstar": 0.0017994,
        "meta_mean_motion_dot": 2.109e-05,
        "meta_mean_motion_ddot": 0,
        "tle_line1": "1 29860U 99025FE  25354.00383582  .00002109  00000+0  17994-2 0  9991",
        "tle_line2": "2 29860  98.6169  27.2498 0221203 323.5795 101.1256 13.77565437942393"
      },
      "geometry": {
        "type": "Point",
        "coordinates": [
          -123.9108892967837,
          71.28534846029127
        ]
      }
    },
    {
      "type": "Feature",
      "properties": {
        "norad_id": 29865,
        "name": "FENGYUN 1C DEB",
        "group": "fengyun-1c-debris",
        "lat": -75.56538623898834,
        "lon": -54.03699661585685,
        "alt_km": 708.7436056228944,
        "timestamp": "2025-12-22T11:33:20.711238+00:00",
        "meta_object_name": "FENGYUN 1C DEB",
        "meta_object_id": "1999-025FK",
        "meta_epoch": "2025-12-21T18:24:10.897056",
        "meta_mean_motion": 14.82679823,
        "meta_eccentricity": 0.011667,
        "meta_inclination": 98.9214,
        "meta_ra_of_asc_node": 267.557,
        "meta_arg_of_pericenter": 112.9053,
        "meta_mean_anomaly": 315.7495,
        "meta_ephemeris_type": 0,
        "meta_classification_type": "U",
        "meta_norad_cat_id": 29865,
        "meta_element_set_no": 999,
        "meta_rev_at_epoch": 892,
        "meta_bstar": 0.00044444,
        "meta_mean_motion_dot": 3.967e-05,
        "meta_mean_motion_ddot": 0,
        "tle_line1": "1 29865U 99025FK  25355.76679279  .00003967  00000+0  44444-3 0  9995",
        "tle_line2": "2 29865  98.9214 267.5570 0116670 112.9053 315.7495 14.82679823  8922"
      },
      "geometry": {
        "type": "Point",
        "coordinates": [
          -54.03699661585685,
          -75.56538623898834
        ]
      }
    },
    {
      "type": "Feature",
      "properties": {
        "norad_id": 29866,
        "name": "FENGYUN 1C DEB",
        "group": "fengyun-1c-debris",
        "lat": 55.9611185955784,
        "lon": 174.06210292472423,
        "alt_km": 605.2412478503666,
        "timestamp": "2025-12-22T11:33:20.711248+00:00",
        "meta_object_name": "FENGYUN 1C DEB",
        "meta_object_id": "1999-025FL",
        "meta_epoch": "2025-12-21T22:09:42.558336",
        "meta_mean_motion": 14.64242932,
        "meta_eccentricity": 0.0194918,
        "meta_inclination": 98.0381,
        "meta_ra_of_asc_node": 341.4416,
        "meta_arg_of_pericenter": 185.7987,
        "meta_mean_anomaly": 239.2294,
        "meta_ephemeris_type": 0,
        "meta_classification_type": "U",
        "meta_norad_cat_id": 29866,
        "meta_element_set_no": 999,
        "meta_rev_at_epoch": 461,
        "meta_bstar": 0.00020238,
        "meta_mean_motion_dot": 1.349e-05,
        "meta_mean_motion_ddot": 0,
        "tle_line1": "1 29866U 99025FL  25355.92340924  .00001349  00000+0  20238-3 0  9993",
        "tle_line2": "2 29866  98.0381 341.4416 0194918 185.7987 239.2294 14.64242932  4611"
      },
      "geometry": {
        "type": "Point",
        "coordinates": [
          174.06210292472423,
          55.9611185955784
        ]
      }
    },
    {
      "type": "Feature",
      "properties": {
        "norad_id": 29868,
        "name": "FENGYUN 1C DEB",
        "group": "fengyun-1c-debris",
        "lat": 72.50375180074016,
        "lon": -111.58367424468956,
        "alt_km": 719.3593175710539,
        "timestamp": "2025-12-22T11:33:20.711258+00:00",
        "meta_object_name": "FENGYUN 1C DEB",
        "meta_object_id": "1999-025FN",
        "meta_epoch": "2025-12-22T03:03:59.310720",
        "meta_mean_motion": 14.78536583,
        "meta_eccentricity": 0.0195745,
        "meta_inclination": 97.9482,
        "meta_ra_of_asc_node": 41.7577,
        "meta_arg_of_pericenter": 333.6218,
        "meta_mean_anomaly": 48.7155,
        "meta_ephemeris_type": 0,
        "meta_classification_type": "U",
        "meta_norad_cat_id": 29868,
        "meta_element_set_no": 999,
        "meta_rev_at_epoch": 434,
        "meta_bstar": 0.00068127,
        "meta_mean_motion_dot": 6.815e-05,
        "meta_mean_motion_ddot": 0,
        "tle_line1": "1 29868U 99025FN  25356.12776980  .00006815  00000+0  68127-3 0  9995",
        "tle_line2": "2 29868  97.9482  41.7577 0195745 333.6218  48.7155 14.78536583  4343"
      },
      "geometry": {
        "type": "Point",
        "coordinates": [
          -111.58367424468956,
          72.50375180074016
        ]
      }
    }
  ]
}